H1 CPF  1  DGF 2022 01 10 15  5101 larets     NONE      
H2   304206 5557    27944 2022 01 10 00 00 00 2022 01 17 00 00 00    30 1 1  0 0 0
H5  0.0650
H9
10 0 59592  72000.000000  0        550003.601       5708191.249       4099995.752
10 0 59592  72030.000000  0        588809.315       5571253.410       4278470.098
10 0 59592  72060.000000  0        626403.667       5428476.281       4452556.324
10 0 59592  72090.000000  0        662723.210       5280010.993       4622076.171
10 0 59592  72120.000000  0        697706.477       5126014.750       4786856.120
10 0 59592  72150.000000  0        731294.068       4966650.658       4946727.558
10 0 59592  72180.000000  0        763428.732       4802087.555       5101526.960
10 0 59592  72210.000000  0        794055.460       4632499.818       5251096.055
10 0 59592  72240.000000  0        823121.560       4458067.173       5395281.986
10 0 59592  72270.000000  0        850576.740       4278974.492       5533937.466
10 0 59592  72300.000000  0        876373.178       4095411.594       5666920.928
10 0 59592  72330.000000  0        900465.590       3907573.027       5794096.667
10 0 59592  72360.000000  0        922811.296       3715657.856       5915334.979
10 0 59592  72390.000000  0        943370.279       3519869.445       6030512.283
10 0 59592  72420.000000  0        962105.246       3320415.227       6139511.249
10 0 59592  72450.000000  0        978981.679       3117506.485       6242220.910
10 0 59592  72480.000000  0        993967.886       2911358.115       6338536.770
10 0 59592  72510.000000  0       1007035.050       2702188.396       6428360.908
10 0 59592  72540.000000  0       1018157.267       2490218.753       6511602.072
10 0 59592  72570.000000  0       1027311.590       2275673.514       6588175.770
10 0 59592  72600.000000  0       1034478.058       2058779.668       6658004.354
10 0 59592  72630.000000  0       1039639.731       1839766.613       6721017.085
10 0 59592  72660.000000  0       1042782.713       1618865.917       6777150.204
10 0 59592  72690.000000  0       1043896.175       1396311.063       6826346.988
10 0 59592  72720.000000  0       1042972.374       1172337.204       6868557.804
10 0 59592  72750.000000  0       1040006.664        947180.913       6903740.151
10 0 59592  72780.000000  0       1034997.509        721079.929       6931858.703
10 0 59592  72810.000000  0       1027946.487        494272.912       6952885.338
10 0 59592  72840.000000  0       1018858.293        266999.188       6966799.171
10 0 59592  72870.000000  0       1007740.733         39498.489       6973586.575
10 0 59592  72900.000000  0        994604.715       -187989.300       6973241.191
10 0 59592  72930.000000  0        979464.244       -415224.398       6965763.930
10 0 59592  72960.000000  0        962336.399       -641967.388       6951162.974
10 0 59592  72990.000000  0        943241.320       -867979.463       6929453.755
10 0 59592  73020.000000  0        922202.181      -1093022.680       6900658.947
10 0 59592  73050.000000  0        899245.159      -1316860.216       6864808.441
10 0 59592  73080.000000  0        874399.405      -1539256.614       6821939.313
10 0 59592  73110.000000  0        847697.005      -1759978.037       6772095.785
10 0 59592  73140.000000  0        819172.943      -1978792.513       6715329.183
10 0 59592  73170.000000  0        788865.056      -2195470.183       6651697.887
10 0 59592  73200.000000  0        756813.986      -2409783.548       6581267.269
10 0 59592  73230.000000  0        723063.125      -2621507.718       6504109.629
10 0 59592  73260.000000  0        687658.558      -2830420.640       6420304.107
10 0 59592  73290.000000  0        650649.004      -3036303.339       6329936.609
10 0 59592  73320.000000  0        612085.753      -3238940.139       6233099.715
10 0 59592  73350.000000  0        572022.603      -3438118.893       6129892.591
10 0 59592  73380.000000  0        530515.788      -3633631.209       6020420.891
10 0 59592  73410.000000  0        487623.903      -3825272.671       5904796.652
10 0 59592  73440.000000  0        443407.830      -4012843.055       5783138.177
10 0 59592  73470.000000  0        397930.660      -4196146.539       5655569.922
10 0 59592  73500.000000  0        351257.604      -4374991.912       5522222.371
10 0 59592  73530.000000  0        303455.916      -4549192.778       5383231.909
10 0 59592  73560.000000  0        254594.799      -4718567.755       5238740.687
10 0 59592  73590.000000  0        204745.312      -4882940.679       5088896.481
10 0 59592  73620.000000  0        153980.277      -5042140.788       4933852.542
10 0 59592  73650.000000  0        102374.180      -5196002.914       4773767.441
10 0 59592  73680.000000  0         50003.068      -5344367.657       4608804.901
10 0 59592  73710.000000  0         -3055.552      -5487081.561       4439133.632
10 0 59592  73740.000000  0        -56722.822      -5623997.270       4264927.162
10 0 59592  73770.000000  0       -110918.638      -5754973.693       4086363.650
10 0 59592  73800.000000  0       -165561.764      -5879876.154       3903625.716
10 0 59592  73830.000000  0       -220569.939      -5998576.536       3716900.242
10 0 59592  73860.000000  0       -275859.995      -6110953.421       3526378.189
10 0 59592  73890.000000  0       -331347.968      -6216892.220       3332254.390
10 0 59592  73920.000000  0       -386949.220      -6316285.297       3134727.353
10 0 59592  73950.000000  0       -442578.551      -6409032.078       2933999.048
10 0 59592  73980.000000  0       -498150.319      -6495039.155       2730274.703
10 0 59592  74010.000000  0       -553578.561      -6574220.385       2523762.587
10 0 59592  74040.000000  0       -608777.108      -6646496.978       2314673.803
10 0 59592  74070.000000  0       -663659.711      -6711797.583       2103222.068
10 0 59592  74100.000000  0       -718140.161      -6770058.367       1889623.490
10 0 59592  74130.000000  0       -772132.411      -6821223.089       1674096.340
10 0 59592  74160.000000  0       -825550.703      -6865243.147       1456860.817
10 0 59592  74190.000000  0       -878309.689      -6902077.627       1238138.815
10 0 59592  74220.000000  0       -930324.552      -6931693.339       1018153.694
10 0 59592  74250.000000  0       -981511.127      -6954064.844        797130.042
10 0 59592  74280.000000  0      -1031786.019      -6969174.475        575293.442
10 0 59592  74310.000000  0      -1081066.725      -6977012.345        352870.232
10 0 59592  74340.000000  0      -1129271.750      -6977576.351        130087.272
10 0 59592  74370.000000  0      -1176320.723      -6970872.161        -92828.297
10 0 59592  74400.000000  0      -1222134.516      -6956913.203       -315649.287
10 0 59592  74430.000000  0      -1266635.350      -6935720.634       -538148.701
10 0 59592  74460.000000  0      -1309746.916      -6907323.309       -760099.967
10 0 59592  74490.000000  0      -1351394.477      -6871757.736       -981277.176
10 0 59592  74520.000000  0      -1391504.983      -6829068.027      -1201455.312
10 0 59592  74550.000000  0      -1430007.170      -6779305.833      -1420410.486
10 0 59592  74580.000000  0      -1466831.671      -6722530.282      -1637920.165
10 0 59592  74610.000000  0      -1501911.114      -6658807.900      -1853763.402
10 0 59592  74640.000000  0      -1535180.222      -6588212.523      -2067721.065
10 0 59592  74670.000000  0      -1566575.907      -6510825.211      -2279576.056
10 0 59592  74700.000000  0      -1596037.370      -6426734.141      -2489113.538
10 0 59592  74730.000000  0      -1623506.182      -6336034.499      -2696121.153
10 0 59592  74760.000000  0      -1648926.381      -6238828.365      -2900389.234
10 0 59592  74790.000000  0      -1672244.548      -6135224.584      -3101711.020
10 0 59592  74820.000000  0      -1693409.894      -6025338.641      -3299882.862
10 0 59592  74850.000000  0      -1712374.335      -5909292.515      -3494704.426
10 0 59592  74880.000000  0      -1729092.562      -5787214.541      -3685978.895
10 0 59592  74910.000000  0      -1743522.118      -5659239.250      -3873513.158
10 0 59592  74940.000000  0      -1755623.456      -5525507.218      -4057118.005
10 0 59592  74970.000000  0      -1765360.008      -5386164.901      -4236608.304
10 0 59592  75000.000000  0      -1772698.240      -5241364.464      -4411803.189
10 0 59592  75030.000000  0      -1777607.710      -5091263.614      -4582526.228
10 0 59592  75060.000000  0      -1780061.116      -4936025.412      -4748605.599
10 0 59592  75090.000000  0      -1780034.346      -4775818.098      -4909874.250
10 0 59592  75120.000000  0      -1777506.519      -4610814.898      -5066170.058
10 0 59592  75150.000000  0      -1772460.028      -4441193.834      -5217335.989
10 0 59592  75180.000000  0      -1764880.569      -4267137.524      -5363220.240
10 0 59592  75210.000000  0      -1754757.180      -4088832.985      -5503676.387
10 0 59592  75240.000000  0      -1742082.258      -3906471.429      -5638563.520
10 0 59592  75270.000000  0      -1726851.593      -3720248.052      -5767746.377
10 0 59592  75300.000000  0      -1709064.376      -3530361.824      -5891095.470
10 0 59592  75330.000000  0      -1688723.222      -3337015.277      -6008487.204
10 0 59592  75360.000000  0      -1665834.175      -3140414.282      -6119803.993
10 0 59592  75390.000000  0      -1640406.715      -2940767.835      -6224934.368
10 0 59592  75420.000000  0      -1612453.761      -2738287.827      -6323773.072
10 0 59592  75450.000000  0      -1581991.665      -2533188.830      -6416221.165
10 0 59592  75480.000000  0      -1549040.213      -2325687.864      -6502186.102
10 0 59592  75510.000000  0      -1513622.607      -2116004.177      -6581581.824
10 0 59592  75540.000000  0      -1475765.458      -1904359.013      -6654328.835
10 0 59592  75570.000000  0      -1435498.762      -1690975.383      -6720354.272
99
